{
    "links": {
        "self": "http://www.neowsapp.com/rest/v1/neo/3368494?api_key=iIulBulltgU6a56xZRHN4H3l9WmuAYTsLGpBGhQ2"
    },
    "id": "3368494",
    "neo_reference_id": "3368494",
    "name": "(2007 DX)",
    "designation": "2007 DX",
    "nasa_jpl_url": "http://ssd.jpl.nasa.gov/sbdb.cgi?sstr=3368494",
    "absolute_magnitude_h": 22.7,
    "estimated_diameter": {
        "kilometers": {
            "estimated_diameter_min": 0.0766575574,
            "estimated_diameter_max": 0.1714115092
        },
        "meters": {
            "estimated_diameter_min": 76.6575573531,
            "estimated_diameter_max": 171.4115092306
        },
        "miles": {
            "estimated_diameter_min": 0.0476327831,
            "estimated_diameter_max": 0.1065101409
        },
        "feet": {
            "estimated_diameter_min": 251.5011804664,
            "estimated_diameter_max": 562.3737359442
        }
    },
    "is_potentially_hazardous_asteroid": false,
    "close_approach_data": [
        {
            "close_approach_date": "1990-03-14",
            "close_approach_date_full": "1990-Mar-14 16:35",
            "epoch_date_close_approach": 637432500000,
            "relative_velocity": {
                "kilometers_per_second": "5.5674976375",
                "kilometers_per_hour": "20042.9914950342",
                "miles_per_hour": "12453.935465345"
            },
            "miss_distance": {
                "astronomical": "0.3096157699",
                "lunar": "120.4405344911",
                "kilometers": "46317859.695450113",
                "miles": "28780583.4413650394"
            },
            "orbiting_body": "Earth"
        },
        {
            "close_approach_date": "2007-03-16",
            "close_approach_date_full": "2007-Mar-16 02:06",
            "epoch_date_close_approach": 1174010760000,
            "relative_velocity": {
                "kilometers_per_second": "4.491969764",
                "kilometers_per_hour": "16171.0911502699",
                "miles_per_hour": "10048.0871650108"
            },
            "miss_distance": {
                "astronomical": "0.2149967298",
                "lunar": "83.6337278922",
                "kilometers": "32163052.835045526",
                "miles": "19985194.3059232188"
            },
            "orbiting_body": "Earth"
        },
        {
            "close_approach_date": "2022-04-01",
            "close_approach_date_full": "2022-Apr-01 16:34",
            "epoch_date_close_approach": 1648830840000,
            "relative_velocity": {
                "kilometers_per_second": "5.7242094509",
                "kilometers_per_hour": "20607.1540233795",
                "miles_per_hour": "12804.4841208049"
            },
            "miss_distance": {
                "astronomical": "1.4947096578",
                "lunar": "581.4420568842",
                "kilometers": "223605381.075308886",
                "miles": "138941940.9767831868"
            },
            "orbiting_body": "Juptr"
        },
        {
            "close_approach_date": "2045-03-16",
            "close_approach_date_full": "2045-Mar-16 14:37",
            "epoch_date_close_approach": 2373287820000,
            "relative_velocity": {
                "kilometers_per_second": "5.382427989",
                "kilometers_per_hour": "19376.7407603767",
                "miles_per_hour": "12039.9531685796"
            },
            "miss_distance": {
                "astronomical": "0.2555508924",
                "lunar": "99.4092971436",
                "kilometers": "38229869.179639188",
                "miles": "23754939.1770612744"
            },
            "orbiting_body": "Earth"
        }
    ],
    "orbital_data": {
        "orbit_id": "14",
        "orbit_determination_date": "2017-04-06 09:06:58",
        "first_observation_date": "2007-02-17",
        "last_observation_date": "2007-04-16",
        "data_arc_in_days": 58,
        "observations_used": 35,
        "orbit_uncertainty": "6",
        "minimum_orbit_intersection": ".2043",
        "jupiter_tisserand_invariant": "3.176",
        "epoch_osculation": "2459000.5",
        "eccentricity": ".5424165297935184",
        "semi_major_axis": "2.616055602724661",
        "inclination": "4.639016932388535",
        "ascending_node_longitude": "336.0600120698174",
        "orbital_period": "1545.499548433269",
        "perihelion_distance": "1.197063800947859",
        "perihelion_argument": "198.1224770008866",
        "aphelion_distance": "4.035047404501463",
        "perihelion_time": "2458808.455889343448",
        "mean_anomaly": "44.73367844490436",
        "mean_motion": ".23293439352017",
        "equinox": "J2000",
        "orbit_class": {
            "orbit_class_type": "AMO",
            "orbit_class_description": "Near-Earth asteroid orbits similar to that of 1221 Amor",
            "orbit_class_range": "1.017 AU < q (perihelion) < 1.3 AU"
        }
    },
    "is_sentry_object": false
}